[{"OBJECT_NAME":"CUTE-1.7+APD II (CO-65)","OBJECT_ID":"2008-021C","EPOCH":"2026-03-04T20:53:51.459936","MEAN_MOTION":15.08290642,"ECCENTRICITY":0.0010226,"INCLINATION":97.8203,"RA_OF_ASC_NODE":43.2559,"ARG_OF_PERICENTER":34.2666,"MEAN_ANOMALY":325.922,"EPHEMERIS_TYPE":0,"CLASSIFICATION_TYPE":"U","NORAD_CAT_ID":32785,"ELEMENT_SET_NO":999,"REV_AT_EPOCH":96946,"BSTAR":0.00062713,"MEAN_MOTION_DOT":9.676e-5,"MEAN_MOTION_DDOT":0},{"OBJECT_NAME":"SEEDS II (CO-66)","OBJECT_ID":"2008-021J","EPOCH":"2026-03-04T13:18:31.156128","MEAN_MOTION":15.28814513,"ECCENTRICITY":0.0002344,"INCLINATION":97.7508,"RA_OF_ASC_NODE":56.7719,"ARG_OF_PERICENTER":16.0958,"MEAN_ANOMALY":344.0355,"EPHEMERIS_TYPE":0,"CLASSIFICATION_TYPE":"U","NORAD_CAT_ID":32791,"ELEMENT_SET_NO":999,"REV_AT_EPOCH":97128,"BSTAR":0.00099192,"MEAN_MOTION_DOT":0.00027773,"MEAN_MOTION_DDOT":0},{"OBJECT_NAME":"YUBILEINY (RS30)","OBJECT_ID":"2008-025A","EPOCH":"2026-03-04T19:10:04.528128","MEAN_MOTION":12.43176137,"ECCENTRICITY":0.001933,"INCLINATION":82.4984,"RA_OF_ASC_NODE":60.3662,"ARG_OF_PERICENTER":175.9273,"MEAN_ANOMALY":184.1968,"EPHEMERIS_TYPE":0,"CLASSIFICATION_TYPE":"U","NORAD_CAT_ID":32953,"ELEMENT_SET_NO":999,"REV_AT_EPOCH":80672,"BSTAR":0.00034741,"MEAN_MOTION_DOT":5.8e-7,"MEAN_MOTION_DDOT":0},{"OBJECT_NAME":"KKS-1 (KISEKI)","OBJECT_ID":"2009-002H","EPOCH":"2026-03-04T19:24:34.741152","MEAN_MOTION":14.82807254,"ECCENTRICITY":0.0006429,"INCLINATION":98.119,"RA_OF_ASC_NODE":344.63,"ARG_OF_PERICENTER":270.1384,"MEAN_ANOMALY":89.9092,"EPHEMERIS_TYPE":0,"CLASSIFICATION_TYPE":"U","NORAD_CAT_ID":33499,"ELEMENT_SET_NO":999,"REV_AT_EPOCH":92072,"BSTAR":0.00032614,"MEAN_MOTION_DOT":2.583e-5,"MEAN_MOTION_DDOT":0},{"OBJECT_NAME":"SWISSCUBE","OBJECT_ID":"2009-051B","EPOCH":"2026-03-04T16:30:03.036096","MEAN_MOTION":14.62243369,"ECCENTRICITY":0.0006726,"INCLINATION":98.4103,"RA_OF_ASC_NODE":329.7416,"ARG_OF_PERICENTER":167.7052,"MEAN_ANOMALY":192.4314,"EPHEMERIS_TYPE":0,"CLASSIFICATION_TYPE":"U","NORAD_CAT_ID":35932,"ELEMENT_SET_NO":999,"REV_AT_EPOCH":87388,"BSTAR":0.00035639,"MEAN_MOTION_DOT":1.747e-5,"MEAN_MOTION_DDOT":0},{"OBJECT_NAME":"BEESAT-1","OBJECT_ID":"2009-051C","EPOCH":"2026-03-04T07:14:07.909152","MEAN_MOTION":14.6151897,"ECCENTRICITY":0.00049358,"INCLINATION":98.4035,"RA_OF_ASC_NODE":329.1997,"ARG_OF_PERICENTER":179.8045,"MEAN_ANOMALY":180.3159,"EPHEMERIS_TYPE":0,"CLASSIFICATION_TYPE":"U","NORAD_CAT_ID":35933,"ELEMENT_SET_NO":999,"REV_AT_EPOCH":87386,"BSTAR":0.00032294291,"MEAN_MOTION_DOT":1.553e-5,"MEAN_MOTION_DDOT":0},{"OBJECT_NAME":"ITUPSAT1","OBJECT_ID":"2009-051E","EPOCH":"2026-03-04T16:20:12.556032","MEAN_MOTION":14.60255563,"ECCENTRICITY":0.0006918,"INCLINATION":98.4121,"RA_OF_ASC_NODE":328.8845,"ARG_OF_PERICENTER":194.4211,"MEAN_ANOMALY":165.6792,"EPHEMERIS_TYPE":0,"CLASSIFICATION_TYPE":"U","NORAD_CAT_ID":35935,"ELEMENT_SET_NO":999,"REV_AT_EPOCH":87348,"BSTAR":0.00028929,"MEAN_MOTION_DOT":1.348e-5,"MEAN_MOTION_DDOT":0},{"OBJECT_NAME":"XIWANG-1 (HOPE-1)","OBJECT_ID":"2009-072B","EPOCH":"2026-03-04T21:31:43.419648","MEAN_MOTION":13.16436528,"ECCENTRICITY":0.0008047,"INCLINATION":100.3908,"RA_OF_ASC_NODE":19.4523,"ARG_OF_PERICENTER":109.6454,"MEAN_ANOMALY":250.5528,"EPHEMERIS_TYPE":0,"CLASSIFICATION_TYPE":"U","NORAD_CAT_ID":36122,"ELEMENT_SET_NO":999,"REV_AT_EPOCH":77928,"BSTAR":0.00011157,"MEAN_MOTION_DOT":-2.0e-8,"MEAN_MOTION_DDOT":0},{"OBJECT_NAME":"O/OREOS (USA 219)","OBJECT_ID":"2010-062C","EPOCH":"2026-03-04T08:56:15.160416","MEAN_MOTION":14.93247741,"ECCENTRICITY":0.00169227,"INCLINATION":71.9723,"RA_OF_ASC_NODE":317.678,"ARG_OF_PERICENTER":265.6044,"MEAN_ANOMALY":94.3193,"EPHEMERIS_TYPE":0,"CLASSIFICATION_TYPE":"U","NORAD_CAT_ID":37224,"ELEMENT_SET_NO":999,"REV_AT_EPOCH":10099,"BSTAR":0.00036853675,"MEAN_MOTION_DOT":3.806e-5,"MEAN_MOTION_DDOT":0},{"OBJECT_NAME":"JUGNU","OBJECT_ID":"2011-058B","EPOCH":"2026-03-04T18:44:03.272352","MEAN_MOTION":14.13738237,"ECCENTRICITY":0.0018688,"INCLINATION":19.9595,"RA_OF_ASC_NODE":222.7218,"ARG_OF_PERICENTER":3.5238,"MEAN_ANOMALY":127.1424,"EPHEMERIS_TYPE":0,"CLASSIFICATION_TYPE":"U","NORAD_CAT_ID":37839,"ELEMENT_SET_NO":999,"REV_AT_EPOCH":74423,"BSTAR":0.00014363,"MEAN_MOTION_DOT":5.42e-6,"MEAN_MOTION_DDOT":0},{"OBJECT_NAME":"SRMSAT","OBJECT_ID":"2011-058D","EPOCH":"2026-03-04T19:24:44.323776","MEAN_MOTION":14.11545483,"ECCENTRICITY":0.0011875,"INCLINATION":19.9731,"RA_OF_ASC_NODE":331.2453,"ARG_OF_PERICENTER":135.6093,"MEAN_ANOMALY":275.824,"EPHEMERIS_TYPE":0,"CLASSIFICATION_TYPE":"U","NORAD_CAT_ID":37841,"ELEMENT_SET_NO":999,"REV_AT_EPOCH":74305,"BSTAR":0.00012763,"MEAN_MOTION_DOT":5.0e-6,"MEAN_MOTION_DDOT":0},{"OBJECT_NAME":"STRAND-1","OBJECT_ID":"2013-009E","EPOCH":"2026-03-04T11:33:40.641696","MEAN_MOTION":14.37089808,"ECCENTRICITY":0.00086929,"INCLINATION":98.3882,"RA_OF_ASC_NODE":246.3029,"ARG_OF_PERICENTER":176.9706,"MEAN_ANOMALY":183.1535,"EPHEMERIS_TYPE":0,"CLASSIFICATION_TYPE":"U","NORAD_CAT_ID":39090,"ELEMENT_SET_NO":999,"REV_AT_EPOCH":68202,"BSTAR":0.00020323985,"MEAN_MOTION_DOT":5.61e-6,"MEAN_MOTION_DDOT":0},{"OBJECT_NAME":"ZACUBE-1 (TSHEPISOSAT)","OBJECT_ID":"2013-066B","EPOCH":"2026-03-04T20:40:20.716032","MEAN_MOTION":15.00265604,"ECCENTRICITY":0.0041804,"INCLINATION":97.8184,"RA_OF_ASC_NODE":25.6614,"ARG_OF_PERICENTER":236.261,"MEAN_ANOMALY":123.4626,"EPHEMERIS_TYPE":0,"CLASSIFICATION_TYPE":"U","NORAD_CAT_ID":39417,"ELEMENT_SET_NO":999,"REV_AT_EPOCH":66508,"BSTAR":0.00056258,"MEAN_MOTION_DOT":7.114e-5,"MEAN_MOTION_DDOT":0},{"OBJECT_NAME":"GOMX-1","OBJECT_ID":"2013-066Q","EPOCH":"2026-03-04T20:28:01.953696","MEAN_MOTION":14.69076086,"ECCENTRICITY":0.0130548,"INCLINATION":97.6569,"RA_OF_ASC_NODE":270.8598,"ARG_OF_PERICENTER":52.9165,"MEAN_ANOMALY":308.3893,"EPHEMERIS_TYPE":0,"CLASSIFICATION_TYPE":"U","NORAD_CAT_ID":39430,"ELEMENT_SET_NO":999,"REV_AT_EPOCH":65459,"BSTAR":0.00042115,"MEAN_MOTION_DOT":2.767e-5,"MEAN_MOTION_DDOT":0},{"OBJECT_NAME":"CUBEBUG-2 (LO-74)","OBJECT_ID":"2013-066AA","EPOCH":"2026-03-04T19:19:04.540224","MEAN_MOTION":14.9288232,"ECCENTRICITY":0.0059286,"INCLINATION":97.8816,"RA_OF_ASC_NODE":12.4703,"ARG_OF_PERICENTER":15.3033,"MEAN_ANOMALY":344.9962,"EPHEMERIS_TYPE":0,"CLASSIFICATION_TYPE":"U","NORAD_CAT_ID":39440,"ELEMENT_SET_NO":999,"REV_AT_EPOCH":66141,"BSTAR":0.00084552,"MEAN_MOTION_DOT":9.013e-5,"MEAN_MOTION_DDOT":0},{"OBJECT_NAME":"FUNCUBE-1 (AO-73)","OBJECT_ID":"2013-066AE","EPOCH":"2026-03-04T09:33:50.685984","MEAN_MOTION":15.07790976,"ECCENTRICITY":0.00367061,"INCLINATION":97.8175,"RA_OF_ASC_NODE":32.8468,"ARG_OF_PERICENTER":197.5791,"MEAN_ANOMALY":162.4169,"EPHEMERIS_TYPE":0,"CLASSIFICATION_TYPE":"U","NORAD_CAT_ID":39444,"ELEMENT_SET_NO":999,"REV_AT_EPOCH":66386,"BSTAR":0.00097976762,"MEAN_MOTION_DOT":0.00015175,"MEAN_MOTION_DDOT":0},{"OBJECT_NAME":"UWE-3","OBJECT_ID":"2013-066AG","EPOCH":"2026-03-04T15:31:29.717472","MEAN_MOTION":14.96109228,"ECCENTRICITY":0.0048758,"INCLINATION":97.8595,"RA_OF_ASC_NODE":19.1594,"ARG_OF_PERICENTER":309.847,"MEAN_ANOMALY":49.8465,"EPHEMERIS_TYPE":0,"CLASSIFICATION_TYPE":"U","NORAD_CAT_ID":39446,"ELEMENT_SET_NO":999,"REV_AT_EPOCH":66194,"BSTAR":0.0006602,"MEAN_MOTION_DOT":7.547e-5,"MEAN_MOTION_DDOT":0}]
